0 COSMOS 970 DEB
1 13503U 77121BA  13282.84006016  .00000123  00000-0  29556-3 0  1854
2 13503 066.4705 095.3420 0087017 309.9932 159.0229 13.50585248531348
0 COSMOS 970 DEB
1 13503U 77121BA  13285.27365256  .00000113  00000-0  27986-3 0  1863
2 13503 066.4708 089.7179 0087157 308.7158 111.2498 13.50586655531678
0 COSMOS 970 DEB
1 13503U 77121BA  13287.80174588  .00000134  00000-0  31165-3 0  1878
2 13503 066.4712 083.8753 0087345 307.2844 163.0605 13.50587825532015
0 COSMOS 970 DEB
1 13503U 77121BA  13289.86807994  .00000160  00000-0  35158-3 0  1886
2 13503 066.4718 079.1006 0087496 306.1151 129.7668 13.50588736532296
0 COSMOS 970 DEB
1 13503U 77121BA  13292.23380503  .00000211  00000-0  42921-3 0  1897
2 13503 066.4722 073.6340 0087646 304.8067 112.1184 13.50589723532611
0 COSMOS 970 DEB
1 13503U 77121BA  13294.53174654  .00000223  00000-0  44688-3 0  1907
2 13503 066.4725 068.3246 0087763 303.5509 124.8929 13.50591268532925
